NORAD_CAT_ID,OBJECT_NAME,OBJECT_TYPE,EPOCH,MEAN_MOTION,ECCENTRICITY,INCLINATION,RA_OF_ASC_NODE,ARG_OF_PERICENTER,MEAN_ANOMALY,BSTAR,MEAN_MOTION_DOT,MEAN_MOTION_DDOT,TLE_LINE0,TLE_LINE1,TLE_LINE2,SEMIMAJOR_AXIS,PERIOD,APOGEE,PERIGEE,DECAYED
52116.0,STARLINK-3735,PAYLOAD,2024-02-12 13:08:21,15.08839635,0.0001438,53.2169,233.5723,93.5872,266.5285,2.9375e-05,1.8e-06,0.0,0 STARLINK-3735,1 52116U 22029AE  24043.54746793  .00000180  00000-0  29375-4 0  9997,2 52116  53.2169 233.5723 0001438  93.5872 266.5285 15.08839635106636,6917.882,95.438,540.741,538.752,0.0
52116.0,STARLINK-3735,PAYLOAD,2024-02-12 19:29:54,15.08833798,0.0001337,53.2167,232.383,98.4091,261.7052,-3.6874e-05,-8.75e-06,0.0,0 STARLINK-3735,1 52116U 22029AE  24043.81243310 -.00000875  00000-0 -36874-4 0  9999,2 52116  53.2167 232.3830 0001337  98.4091 261.7052 15.08833798106672,6917.899,95.438,540.689,538.839,0.0
52116.0,STARLINK-3735,PAYLOAD,2024-02-13 12:59:08,15.08838699,0.0001212,53.2159,229.114,93.4462,266.6669,5.9706e-06,-1.93e-06,0.0,0 STARLINK-3735,1 52116U 22029AE  24044.54107132 -.00000193  00000-0  59706-5 0  9993,2 52116  53.2159 229.1140 0001212  93.4462 266.6669 15.08838699106785,6917.884,95.438,540.588,538.911,0.0
52116.0,STARLINK-3735,PAYLOAD,2024-02-13 19:20:40,15.08845714,0.0001249,53.2158,227.925,82.5032,277.6102,6.4279e-05,7.35e-06,0.0,0 STARLINK-3735,1 52116U 22029AE  24044.80602536  .00000735  00000-0  64279-4 0  9991,2 52116  53.2158 227.9250 0001249  82.5032 277.6102 15.08845714106829,6917.863,95.437,540.592,538.864,0.0
52116.0,STARLINK-3735,PAYLOAD,2024-02-14 16:00:42,15.0883204,0.0001304,53.217,224.0617,85.9087,274.2054,8.0509e-05,9.93e-06,0.0,0 STARLINK-3735,1 52116U 22029AE  24045.66715511  .00000993  00000-0  80509-4 0  9994,2 52116  53.2170 224.0617 0001304  85.9087 274.2054 15.08832040106958,6917.905,95.438,540.672,538.868,0.0
52116.0,STARLINK-3735,PAYLOAD,2024-02-14 20:46:51,15.08837416,0.0001325,53.2168,223.1698,93.9059,266.2084,0.00011661,1.568e-05,0.0,0 STARLINK-3735,1 52116U 22029AE  24045.86587121  .00001568  00000-0  11661-3 0  9991,2 52116  53.2168 223.1698 0001325  93.9059 266.2084 15.08837416106984,6917.888,95.438,540.67,538.837,0.0
52116.0,STARLINK-3735,PAYLOAD,2024-02-15 11:05:19,15.08836378,0.0001128,53.2167,220.4941,87.8651,272.247,8.2594e-05,1.027e-05,0.0,0 STARLINK-3735,1 52116U 22029AE  24046.46203351  .00001027  00000-0  82594-4 0  9992,2 52116  53.2167 220.4941 0001128  87.8651 272.2470 15.08836378107078,6917.891,95.438,540.537,538.976,0.0
52116.0,STARLINK-3735,PAYLOAD,2024-02-15 19:02:15,15.08843352,0.0001423,53.217,219.0057,90.2617,269.8538,3.0304e-05,1.94e-06,0.0,0 STARLINK-3735,1 52116U 22029AE  24046.79323208  .00000194  00000-0  30304-4 0  9998,2 52116  53.2170 219.0057 0001423  90.2617 269.8538 15.08843352107125,6917.87,95.437,540.72,538.751,0.0
52116.0,STARLINK-3735,PAYLOAD,2024-02-15 20:37:38,15.08846379,0.0001515,53.2173,218.7078,96.5582,263.5582,4.0614e-05,3.59e-06,0.0,0 STARLINK-3735,1 52116U 22029AE  24046.85946957  .00000359  00000-0  40614-4 0  9995,2 52116  53.2173 218.7078 0001515  96.5582 263.5582 15.08846379107132,6917.861,95.437,540.774,538.678,0.0
52116.0,STARLINK-3735,PAYLOAD,2024-02-16 10:56:06,15.08843382,0.0001393,53.2165,216.0312,93.3665,266.7487,7.9972e-06,-1.61e-06,0.0,0 STARLINK-3735,1 52116U 22029AE  24047.45563269 -.00000161  00000-0  79972-5 0  9995,2 52116  53.2165 216.0312 0001393  93.3665 266.7487 15.08843382107226,6917.87,95.437,540.699,538.771,0.0
52116.0,STARLINK-3735,PAYLOAD,2024-02-16 18:53:02,15.08846299,0.0001424,53.2171,214.545,87.5558,272.5597,4.4835e-05,4.26e-06,0.0,0 STARLINK-3735,1 52116U 22029AE  24047.78682910  .00000426  00000-0  44835-4 0  9998,2 52116  53.2171 214.5450 0001424  87.5558 272.5597 15.08846299107272,6917.861,95.437,540.711,538.741,0.0
52116.0,STARLINK-3735,PAYLOAD,2024-02-17 10:46:54,15.08839725,0.0001635,53.2172,211.5711,78.1361,281.9814,-6.1092e-06,-3.85e-06,0.0,0 STARLINK-3735,1 52116U 22029AE  24048.44923637 -.00000385  00000-0 -61092-5 0  9997,2 52116  53.2172 211.5711 0001635  78.1361 281.9814 15.08839725107375,6917.881,95.438,540.877,538.615,0.0
52116.0,STARLINK-3735,PAYLOAD,2024-02-17 17:08:26,15.08839201,0.0001476,53.2169,210.3813,84.1347,275.9813,1.2045e-05,-9.6e-07,0.0,0 STARLINK-3735,1 52116U 22029AE  24048.71419529 -.00000096  00000-0  12045-4 0  9998,2 52116  53.2169 210.3813 0001476  84.1347 275.9813 15.08839201107411,6917.883,95.438,540.769,538.727,0.0
52116.0,STARLINK-3735,PAYLOAD,2024-02-18 13:48:27,15.08841336,0.0001507,53.217,206.5153,85.3829,274.7335,3.2365e-05,2.27e-06,0.0,0 STARLINK-3735,1 52116U 22029AE  24049.57531325  .00000227  00000-0  32365-4 0  9994,2 52116  53.2170 206.5153 0001507  85.3829 274.7335 15.08841336107542,6917.876,95.437,540.784,538.699,0.0
52116.0,STARLINK-3735,PAYLOAD,2024-02-18 20:09:59,15.08847889,0.0001404,53.2173,205.3247,93.3988,266.7165,5.0388e-05,5.14e-06,0.0,0 STARLINK-3735,1 52116U 22029AE  24049.84026756  .00000514  00000-0  50388-4 0  9995,2 52116  53.2173 205.3247 0001404  93.3988 266.7165 15.08847889107582,6917.856,95.437,540.693,538.75,0.0
52116.0,STARLINK-3735,PAYLOAD,2024-02-19 13:39:14,15.08829728,0.000138,53.2169,202.0508,92.2485,267.8665,5.6044e-05,6.04e-06,0.0,0 STARLINK-3735,1 52116U 22029AE  24050.56892075  .00000604  00000-0  56044-4 0  9996,2 52116  53.2169 202.0508 0001380  92.2485 267.8665 15.08829728107695,6917.912,95.438,540.731,538.822,0.0
52116.0,STARLINK-3735,PAYLOAD,2024-02-19 20:00:47,15.08837294,0.0001386,53.2175,200.8632,83.4257,276.6893,1.6605e-05,-2.4e-07,0.0,0 STARLINK-3735,1 52116U 22029AE  24050.83387768 -.00000024  00000-0  16605-4 0  9990,2 52116  53.2175 200.8632 0001386  83.4257 276.6893 15.08837294107734,6917.889,95.438,540.712,538.795,0.0
52116.0,STARLINK-3735,PAYLOAD,2024-02-20 15:05:24,15.08842879,0.0001441,53.2179,197.2955,85.9728,274.1429,6.6963e-05,7.78e-06,0.0,0 STARLINK-3735,1 52116U 22029AE  24051.62875394  .00000778  00000-0  66963-4 0  9992,2 52116  53.2179 197.2955 0001441  85.9728 274.1429 15.08842879107853,6917.872,95.437,540.733,538.74,0.0
52116.0,STARLINK-3735,PAYLOAD,2024-02-20 16:40:47,15.0884357,0.0001287,53.2172,197.0013,82.4149,277.6989,0.00011241,1.502e-05,0.0,0 STARLINK-3735,1 52116U 22029AE  24051.69499203  .00001502  00000-0  11241-3 0  9994,2 52116  53.2172 197.0013 0001287  82.4149 277.6989 15.08843570107865,6917.869,95.437,540.625,538.844,0.0
52116.0,STARLINK-3735,PAYLOAD,2024-02-21 14:56:11,15.08837397,0.0001463,53.2173,192.8408,100.6511,259.4646,5.1224e-05,5.27e-06,0.0,0 STARLINK-3735,1 52116U 22029AE  24052.62235774  .00000527  00000-0  51224-4 0  9991,2 52116  53.2173 192.8408 0001463 100.6511 259.4646 15.08837397108004,6917.888,95.438,540.765,538.741,0.0
52116.0,STARLINK-3735,PAYLOAD,2024-02-21 16:31:34,15.088387,0.0001358,53.2158,192.5399,95.4151,264.6996,3.1294e-05,2.1e-06,0.0,0 STARLINK-3735,1 52116U 22029AE  24052.68859742  .00000210  00000-0  31294-4 0  9998,2 52116  53.2158 192.5399 0001358  95.4151 264.6996 15.08838700108013,6917.884,95.438,540.689,538.81,0.0
52116.0,STARLINK-3735,PAYLOAD,2024-02-22 13:11:36,15.08836412,0.0001472,53.217,188.6765,97.7855,262.3305,-1.7752e-05,-5.7e-06,0.0,0 STARLINK-3735,1 52116U 22029AE  24053.54972229 -.00000570  00000-0 -17752-4 0  9994,2 52116  53.2170 188.6765 0001472  97.7855 262.3305 15.08836412108144,6917.891,95.438,540.775,538.738,0.0
52116.0,STARLINK-3735,PAYLOAD,2024-02-22 16:22:21,15.08842118,0.0001395,53.2167,188.0807,93.6452,266.4699,-5.0267e-06,-3.68e-06,0.0,0 STARLINK-3735,1 52116U 22029AE  24053.68219845 -.00000368  00000-0 -50267-5 0  9991,2 52116  53.2167 188.0807 0001395  93.6452 266.4699 15.08842118108166,6917.874,95.437,540.704,538.774,0.0
52116.0,STARLINK-3735,PAYLOAD,2024-02-23 14:37:45,15.08839822,0.0001498,53.2168,183.9179,86.2702,273.8461,6.0679e-05,6.78e-06,0.0,0 STARLINK-3735,1 52116U 22029AE  24054.60955856  .00000678  00000-0  60679-4 0  9992,2 52116  53.2168 183.9179 0001498  86.2702 273.8461 15.08839822108306,6917.881,95.438,540.782,538.71,0.0
52116.0,STARLINK-3735,PAYLOAD,2024-02-23 16:13:09,15.08818741,0.0001628,53.2169,183.6199,85.2668,274.851,0.00036973,5.598e-05,0.0,0 STARLINK-3735,1 52116U 22029AE  24054.67580117  .00005598  00000-0  36973-3 0  9998,2 52116  53.2169 183.6199 0001628  85.2668 274.8510 15.08818741108315,6917.945,95.439,540.937,538.684,0.0
52116.0,STARLINK-3735,PAYLOAD,2024-02-24 14:28:33,15.08840314,0.0001495,53.2176,179.4564,81.4925,278.6236,3.2621e-05,2.31e-06,0.0,0 STARLINK-3735,1 52116U 22029AE  24055.60316109  .00000231  00000-0  32621-4 0  9996,2 52116  53.2176 179.4564 0001495  81.4925 278.6236 15.08840314108451,6917.879,95.438,540.779,538.71,0.0
52116.0,STARLINK-3735,PAYLOAD,2024-02-25 14:19:19,15.08850707,0.0001424,53.2168,174.9956,91.0391,269.0764,6.0672e-05,6.78e-06,0.0,0 STARLINK-3735,1 52116U 22029AE  24056.59675222  .00000678  00000-0  60672-4 0  9991,2 52116  53.2168 174.9956 0001424  91.0391 269.0764 15.08850707108607,6917.848,95.437,540.698,538.728,0.0
52116.0,STARLINK-3735,PAYLOAD,2024-02-25 17:30:05,15.08855577,0.0001503,53.2172,174.3999,93.5064,266.61,9.3381e-05,1.199e-05,0.0,0 STARLINK-3735,1 52116U 22029AE  24056.72922738  .00001199  00000-0  93381-4 0  9995,2 52116  53.2172 174.3999 0001503  93.5064 266.6100 15.08855577108624,6917.833,95.437,540.738,538.658,0.0
52116.0,STARLINK-3735,PAYLOAD,2024-02-26 10:59:20,15.08837741,0.0001509,53.2172,171.13,102.1159,258.0002,1.3088e-05,-8e-07,0.0,0 STARLINK-3735,1 52116U 22029AE  24057.45788106 -.00000080  00000-0  13088-4 0  9990,2 52116  53.2172 171.1300 0001509 102.1159 258.0002 15.08837741108734,6917.887,95.438,540.796,538.708,0.0
52116.0,STARLINK-3735,PAYLOAD,2024-02-26 14:10:07,15.08840336,0.0001562,53.2175,170.5356,96.2599,263.8571,3.6214e-05,2.88e-06,0.0,0 STARLINK-3735,1 52116U 22029AE  24057.59035935  .00000288  00000-0  36214-4 0  9995,2 52116  53.2175 170.5356 0001562  96.2599 263.8571 15.08840336108752,6917.879,95.438,540.825,538.664,0.0
